start=new Date('2022-07-03T00:00:00.000Z').valueOf();
sats=[{"SITE":"AFETR","TIME_SYSTEM":"UTC","OBJECT_ID":"2022-025Z","EPHEMERIS_TYPE":"0","GP_ID":"207269067","COUNTRY_CODE":"US","PERIOD":"95.436","TLE_LINE2":"2 51979  53.2192 322.0253 0001870  45.8094  91.0762 15.08872351  1307","MEAN_MOTION_DOT":"-0.00074602","EPOCH":"2022-07-02T14:00:01.000224","PERIAPSIS":"538.353","OBJECT_TYPE":"PAYLOAD","SEMIMAJOR_AXIS":"6917.782","REF_FRAME":"TEME","CLASSIFICATION_TYPE":"U","DECAY_DATE":null,"INCLINATION":"53.2192","MEAN_MOTION":"15.08872351","LAUNCH_DATE":"2022-03-09","MEAN_ELEMENT_THEORY":"SGP4","APOAPSIS":"540.940","MEAN_MOTION_DDOT":"0.0000000000000","TLE_LINE1":"1 51979U 22025Z   22183.58334491 -.00074602  00000-0 -47140-2 0  9994","MEAN_ANOMALY":"91.0762","ARG_OF_PERICENTER":"45.8094","BSTAR":"-0.00471400000000","OBJECT_NAME":"STARLINK-3656","NORAD_CAT_ID":"51979","RCS_SIZE":"LARGE","REV_AT_EPOCH":"130","FILE":"3506647","RA_OF_ASC_NODE":"322.0253","ELEMENT_SET_NO":"999","ECCENTRICITY":"0.00018700","CENTER_NAME":"EARTH"},{"BSTAR":"-0.00132810000000","RCS_SIZE":"LARGE","NORAD_CAT_ID":"51980","OBJECT_NAME":"STARLINK-3649","ELEMENT_SET_NO":"999","ECCENTRICITY":"0.00015950","CENTER_NAME":"EARTH","REV_AT_EPOCH":"130","FILE":"3506647","RA_OF_ASC_NODE":"322.0220","LAUNCH_DATE":"2022-03-09","MEAN_ELEMENT_THEORY":"SGP4","MEAN_MOTION":"15.08839696","APOAPSIS":"540.850","MEAN_MOTION_DDOT":"0.0000000000000","ARG_OF_PERICENTER":"69.8155","TLE_LINE1":"1 51980U 22025AA  22183.58334491 -.00021362  00000-0 -13281-2 0  9990","MEAN_ANOMALY":"187.0434","PERIAPSIS":"538.643","TLE_LINE2":"2 51980  53.2158 322.0220 0001595  69.8155 187.0434 15.08839696  1300","MEAN_MOTION_DOT":"-0.00021362","EPOCH":"2022-07-02T14:00:01.000224","OBJECT_TYPE":"PAYLOAD","SEMIMAJOR_AXIS":"6917.881","REF_FRAME":"TEME","CLASSIFICATION_TYPE":"U","INCLINATION":"53.2158","DECAY_DATE":null,"TIME_SYSTEM":"UTC","SITE":"AFETR","OBJECT_ID":"2022-025AA","EPHEMERIS_TYPE":"0","PERIOD":"95.438","COUNTRY_CODE":"US","GP_ID":"207269817"},{"MEAN_ANOMALY":"121.6078","TLE_LINE1":"1 51981U 22025AB  22183.58334491 -.00024874  00000-0 -15500-2 0  9998","ARG_OF_PERICENTER":"55.2724","MEAN_MOTION":"15.08842454","MEAN_ELEMENT_THEORY":"SGP4","LAUNCH_DATE":"2022-03-09","MEAN_MOTION_DDOT":"0.0000000000000","APOAPSIS":"540.937","NORAD_CAT_ID":"51981","OBJECT_NAME":"STARLINK-3635","RCS_SIZE":"LARGE","REV_AT_EPOCH":"130","FILE":"3506647","RA_OF_ASC_NODE":"322.0605","ELEMENT_SET_NO":"999","ECCENTRICITY":"0.00017330","CENTER_NAME":"EARTH","BSTAR":"-0.00155000000000","COUNTRY_CODE":"US","GP_ID":"207268565","PERIOD":"95.437","SITE":"AFETR","TIME_SYSTEM":"UTC","EPHEMERIS_TYPE":"0","OBJECT_ID":"2022-025AB","CLASSIFICATION_TYPE":"U","REF_FRAME":"TEME","SEMIMAJOR_AXIS":"6917.873","DECAY_DATE":null,"INCLINATION":"53.2140","EPOCH":"2022-07-02T14:00:01.000224","MEAN_MOTION_DOT":"-0.00024874","TLE_LINE2":"2 51981  53.2140 322.0605 0001733  55.2724 121.6078 15.08842454  1308","PERIAPSIS":"538.539","OBJECT_TYPE":"PAYLOAD"},{"PERIAPSIS":"538.760","TLE_LINE2":"2 51982  53.2153 322.0200 0001375  58.7429 218.1907 15.08851024  1302","MEAN_MOTION_DOT":"-0.00020302","EPOCH":"2022-07-02T14:00:01.000224","OBJECT_TYPE":"PAYLOAD","SEMIMAJOR_AXIS":"6917.847","CLASSIFICATION_TYPE":"U","REF_FRAME":"TEME","INCLINATION":"53.2153","DECAY_DATE":null,"TIME_SYSTEM":"UTC","SITE":"AFETR","EPHEMERIS_TYPE":"0","OBJECT_ID":"2022-025AC","PERIOD":"95.437","COUNTRY_CODE":"US","GP_ID":"207268316","BSTAR":"-0.00126070000000","RCS_SIZE":"LARGE","NORAD_CAT_ID":"51982","OBJECT_NAME":"STARLINK-3650","ELEMENT_SET_NO":"999","ECCENTRICITY":"0.00013750","CENTER_NAME":"EARTH","REV_AT_EPOCH":"130","FILE":"3506647","RA_OF_ASC_NODE":"322.0200","MEAN_ELEMENT_THEORY":"SGP4","LAUNCH_DATE":"2022-03-09","MEAN_MOTION":"15.08851024","MEAN_MOTION_DDOT":"0.0000000000000","APOAPSIS":"540.663","ARG_OF_PERICENTER":"58.7429","TLE_LINE1":"1 51982U 22025AC  22183.58334491 -.00020302  00000-0 -12607-2 0  9996","MEAN_ANOMALY":"218.1907"},{"OBJECT_TYPE":"PAYLOAD","PERIAPSIS":"538.614","TLE_LINE2":"2 51983  53.2129 320.1795 0001478  53.5588 247.8005 15.08875710 19021","MEAN_MOTION_DOT":"-0.00026041","EPOCH":"2022-07-03T00:00:00.999648","INCLINATION":"53.2129","DECAY_DATE":null,"SEMIMAJOR_AXIS":"6917.771","REF_FRAME":"TEME","CLASSIFICATION_TYPE":"U","OBJECT_ID":"2022-025AD","EPHEMERIS_TYPE":"0","TIME_SYSTEM":"UTC","SITE":"AFETR","PERIOD":"95.435","GP_ID":"207274912","COUNTRY_CODE":"US","BSTAR":"-0.00162240000000","ECCENTRICITY":"0.00014780","ELEMENT_SET_NO":"999","CENTER_NAME":"EARTH","REV_AT_EPOCH":"1902","FILE":"3506830","RA_OF_ASC_NODE":"320.1795","RCS_SIZE":"LARGE","NORAD_CAT_ID":"51983","OBJECT_NAME":"STARLINK-3655","APOAPSIS":"540.659","MEAN_MOTION_DDOT":"0.0000000000000","LAUNCH_DATE":"2022-03-09","MEAN_ELEMENT_THEORY":"SGP4","MEAN_MOTION":"15.08875710","ARG_OF_PERICENTER":"53.5588","TLE_LINE1":"1 51983U 22025AD  22184.00001157 -.00026041  00000-0 -16224-2 0  9990","MEAN_ANOMALY":"247.8005"},{"MEAN_ANOMALY":"339.8034","TLE_LINE1":"1 51984U 22025AE  22183.58334491 -.00026434  00000-0 -16482-2 0  9995","ARG_OF_PERICENTER":"57.0531","MEAN_MOTION_DDOT":"0.0000000000000","APOAPSIS":"540.864","MEAN_MOTION":"15.08854833","LAUNCH_DATE":"2022-03-09","MEAN_ELEMENT_THEORY":"SGP4","RA_OF_ASC_NODE":"322.0160","FILE":"3506647","REV_AT_EPOCH":"130","CENTER_NAME":"EARTH","ELEMENT_SET_NO":"999","ECCENTRICITY":"0.00016830","OBJECT_NAME":"STARLINK-3664","NORAD_CAT_ID":"51984","RCS_SIZE":"LARGE","BSTAR":"-0.00164820000000","COUNTRY_CODE":"US","GP_ID":"207269318","PERIOD":"95.437","OBJECT_ID":"2022-025AE","EPHEMERIS_TYPE":"0","SITE":"AFETR","TIME_SYSTEM":"UTC","DECAY_DATE":null,"INCLINATION":"53.2180","REF_FRAME":"TEME","CLASSIFICATION_TYPE":"U","SEMIMAJOR_AXIS":"6917.835","OBJECT_TYPE":"PAYLOAD","EPOCH":"2022-07-02T14:00:01.000224","MEAN_MOTION_DOT":"-0.00026434","TLE_LINE2":"2 51984  53.2180 322.0160 0001683  57.0531 339.8034 15.08854833  1300","PERIAPSIS":"538.536"},{"TLE_LINE1":"1 51985U 22025AF  22183.91667824  .00012196  00000-0  78305-3 0  9993","MEAN_ANOMALY":"190.4739","ARG_OF_PERICENTER":"57.9808","MEAN_MOTION_DDOT":"0.0000000000000","APOAPSIS":"540.742","MEAN_MOTION":"15.08839358","LAUNCH_DATE":"2022-03-09","MEAN_ELEMENT_THEORY":"SGP4","RA_OF_ASC_NODE":"320.5304","FILE":"3506654","REV_AT_EPOCH":"1898","ELEMENT_SET_NO":"999","ECCENTRICITY":"0.00014380","CENTER_NAME":"EARTH","OBJECT_NAME":"STARLINK-3651","NORAD_CAT_ID":"51985","RCS_SIZE":"LARGE","BSTAR":"0.00078305000000","COUNTRY_CODE":"US","GP_ID":"207270719","PERIOD":"95.438","EPHEMERIS_TYPE":"0","OBJECT_ID":"2022-025AF","SITE":"AFETR","TIME_SYSTEM":"UTC","DECAY_DATE":null,"INCLINATION":"53.2154","SEMIMAJOR_AXIS":"6917.882","CLASSIFICATION_TYPE":"U","REF_FRAME":"TEME","OBJECT_TYPE":"PAYLOAD","TLE_LINE2":"2 51985  53.2154 320.5304 0001438  57.9808 190.4739 15.08839358 18989","MEAN_MOTION_DOT":"0.00012196","EPOCH":"2022-07-02T22:00:00.999936","PERIAPSIS":"538.753"},{"MEAN_MOTION_DOT":"-0.00027643","EPOCH":"2022-07-02T14:00:01.000224","TLE_LINE2":"2 51986  53.2188 322.0193 0001324  65.5993  11.2523 15.08847596  1306","PERIAPSIS":"538.806","OBJECT_TYPE":"PAYLOAD","REF_FRAME":"TEME","CLASSIFICATION_TYPE":"U","SEMIMAJOR_AXIS":"6917.857","DECAY_DATE":null,"INCLINATION":"53.2188","SITE":"AFETR","TIME_SYSTEM":"UTC","EPHEMERIS_TYPE":"0","OBJECT_ID":"2022-025AG","COUNTRY_CODE":"US","GP_ID":"207268816","PERIOD":"95.437","BSTAR":"-0.00172510000000","NORAD_CAT_ID":"51986","OBJECT_NAME":"STARLINK-3645","RCS_SIZE":"LARGE","RA_OF_ASC_NODE":"322.0193","FILE":"3506647","REV_AT_EPOCH":"130","ELEMENT_SET_NO":"999","ECCENTRICITY":"0.00013240","CENTER_NAME":"EARTH","MEAN_MOTION":"15.08847596","MEAN_ELEMENT_THEORY":"SGP4","LAUNCH_DATE":"2022-03-09","APOAPSIS":"540.638","MEAN_MOTION_DDOT":"0.0000000000000","MEAN_ANOMALY":"11.2523","TLE_LINE1":"1 51986U 22025AG  22183.58334491 -.00027643  00000-0 -17251-2 0  9995","ARG_OF_PERICENTER":"65.5993"},{"MEAN_ANOMALY":"297.8977","TLE_LINE1":"1 51987U 22025AH  22183.58334491 -.00024861  00000-0 -15485-2 0  9992","ARG_OF_PERICENTER":"58.9737","MEAN_MOTION_DDOT":"0.0000000000000","APOAPSIS":"540.838","MEAN_MOTION":"15.08859200","LAUNCH_DATE":"2022-03-09","MEAN_ELEMENT_THEORY":"SGP4","RA_OF_ASC_NODE":"322.0169","FILE":"3506647","REV_AT_EPOCH":"130","CENTER_NAME":"EARTH","ELEMENT_SET_NO":"999","ECCENTRICITY":"0.00016640","NORAD_CAT_ID":"51987","OBJECT_NAME":"STARLINK-3644","RCS_SIZE":"LARGE","BSTAR":"-0.00154850000000","COUNTRY_CODE":"US","GP_ID":"207269068","PERIOD":"95.436","OBJECT_ID":"2022-025AH","EPHEMERIS_TYPE":"0","SITE":"AFETR","TIME_SYSTEM":"UTC","DECAY_DATE":null,"INCLINATION":"53.2182","CLASSIFICATION_TYPE":"U","REF_FRAME":"TEME","SEMIMAJOR_AXIS":"6917.822","OBJECT_TYPE":"PAYLOAD","MEAN_MOTION_DOT":"-0.00024861","EPOCH":"2022-07-02T14:00:01.000224","TLE_LINE2":"2 51987  53.2182 322.0169 0001664  58.9737 297.8977 15.08859200  1303","PERIAPSIS":"538.536"},{"MEAN_MOTION_DDOT":"0.0000000000000","APOAPSIS":"540.684","MEAN_MOTION":"15.08865792","MEAN_ELEMENT_THEORY":"SGP4","LAUNCH_DATE":"2022-03-09","TLE_LINE1":"1 51988U 22025AJ  22183.58334491 -.00032381  00000-0 -20242-2 0  9996","MEAN_ANOMALY":"31.5750","ARG_OF_PERICENTER":"65.2975","BSTAR":"-0.00202420000000","REV_AT_EPOCH":"130","FILE":"3506647","RA_OF_ASC_NODE":"322.0179","CENTER_NAME":"EARTH","ELEMENT_SET_NO":"999","ECCENTRICITY":"0.00014710","OBJECT_NAME":"STARLINK-3640","NORAD_CAT_ID":"51988","RCS_SIZE":"LARGE","OBJECT_ID":"2022-025AJ","EPHEMERIS_TYPE":"0","SITE":"AFETR","TIME_SYSTEM":"UTC","COUNTRY_CODE":"US","GP_ID":"207269818","PERIOD":"95.436","OBJECT_TYPE":"PAYLOAD","TLE_LINE2":"2 51988  53.2187 322.0179 0001471  65.2975  31.5750 15.08865792  1306","MEAN_MOTION_DOT":"-0.00032381","EPOCH":"2022-07-02T14:00:01.000224","PERIAPSIS":"538.649","DECAY_DATE":null,"INCLINATION":"53.2187","SEMIMAJOR_AXIS":"6917.802","CLASSIFICATION_TYPE":"U","REF_FRAME":"TEME"}];
